[Satellite]
VERSION=1.1
NAME=COSMOS 2378
NICKNAME=COSMOS 2378
TLE1=1 26818U 01023A   15055.48624790  .00000024  00000-0  93848-5 0  9990
TLE2=2 26818  82.9254  42.4640 0033956  29.1791 331.1260 13.73869744687685
